KUIPER-00167            
1 65780U 25217U   25294.54136686  .00024664  00000+0  70580-3 0  9998
2 65780  51.8689 316.9024 0005548 187.1203 172.9705 15.35795657  4013
KUIPER-00168            
1 65781U 25217V   25294.57646595  .00076727  00000+0  20398-2 0  9995
2 65781  51.8730 316.3961 0003291  63.5232 296.6092 15.37552189  4024
KUIPER-00169            
1 65782U 25217W   25294.52463649  .00027644  00000+0  76488-3 0  9994
2 65782  51.8731 316.7959 0002947 143.0110 217.1080 15.36792270  4013
KUIPER-00170            
1 65783U 25217X   25294.60478215  .00054829  00000+0  15442-2 0  9996
2 65783  51.8680 316.5761 0005962 180.3363 179.7620 15.35900932  4029
KUIPER-00171            
1 65784U 25217Y   25294.83335647  .00850533  00000+0  20696-1 0  9995
2 65784  51.8691 315.3626 0005009 170.4579  68.9232 15.37939629  4182
KUIPER-00172            
1 65785U 25217Z   25294.51760058  .00059290  00000+0  15994-2 0  9996
2 65785  51.8732 316.7499 0002716 110.1259 250.0020 15.37219019  4015
KUIPER-00173            
1 65786U 25217AA  25294.52136610  .00025675  00000+0  70681-3 0  9994
2 65786  51.8720 316.7760 0002634 127.3451 232.7775 15.36991523  4017
KUIPER-00174            
1 65787U 25217AB  25294.51328707  .00050286  00000+0  13520-2 0  9998
2 65787  51.8730 316.7199 0002898  80.9011 279.2304 15.37394523  4015
